[{"OBJECT_NAME":"STARLINK-36474","OBJECT_ID":"2026-003V","EPOCH":"2026-03-09T12:32:13.609536","MEAN_MOTION":15.27605333,"ECCENTRICITY":7.328e-5,"INCLINATION":42.9993,"RA_OF_ASC_NODE":228.4102,"ARG_OF_PERICENTER":250.2873,"MEAN_ANOMALY":109.79,"EPHEMERIS_TYPE":0,"CLASSIFICATION_TYPE":"U","NORAD_CAT_ID":67353,"ELEMENT_SET_NO":999,"REV_AT_EPOCH":879,"BSTAR":0.0015175353,"MEAN_MOTION_DOT":0.00041766,"MEAN_MOTION_DDOT":0},{"OBJECT_NAME":"ELECTRON KICK STAGE R\/B","OBJECT_ID":"2024-047B","EPOCH":"2026-03-09T21:11:54.433824","MEAN_MOTION":15.27307897,"ECCENTRICITY":0.00092426,"INCLINATION":97.6338,"RA_OF_ASC_NODE":46.9382,"ARG_OF_PERICENTER":20.6031,"MEAN_ANOMALY":339.5579,"EPHEMERIS_TYPE":0,"CLASSIFICATION_TYPE":"U","NORAD_CAT_ID":59225,"ELEMENT_SET_NO":999,"REV_AT_EPOCH":10999,"BSTAR":0.00091229405,"MEAN_MOTION_DOT":0.00024409,"MEAN_MOTION_DDOT":0}]
